CCSDS_OMM_VERS = 2.0
CREATION_DATE  = 
ORIGINATOR     = 

OBJECT_NAME    = SL-4 R/B
OBJECT_ID      = 2014-021B
CENTER_NAME    = EARTH
REF_FRAME      = TEME
TIME_SYSTEM    = UTC
MEAN_ELEMENT_THEORY = SGP/SGP4

EPOCH          = 2026-03-04T02:38:03.562080
MEAN_MOTION    = 15.38961697
ECCENTRICITY   = .0097984
INCLINATION    = 51.6089
RA_OF_ASC_NODE = 4.4953
ARG_OF_PERICENTER = 82.6607
MEAN_ANOMALY   = 278.5500

EPHEMERIS_TYPE = 0
CLASSIFICATION_TYPE = U
NORAD_CAT_ID   = 39679
ELEMENT_SET_NO = 999
REV_AT_EPOCH   = 65541
BSTAR          = .49244E-3
MEAN_MOTION_DOT = .22432E-3
MEAN_MOTION_DDOT = 0

CCSDS_OMM_VERS = 2.0
CREATION_DATE  = 
ORIGINATOR     = 

OBJECT_NAME    = ALOS-2
OBJECT_ID      = 2014-029A
CENTER_NAME    = EARTH
REF_FRAME      = TEME
TIME_SYSTEM    = UTC
MEAN_ELEMENT_THEORY = SGP/SGP4

EPOCH          = 2026-03-04T05:46:30.612576
MEAN_MOTION    = 14.79479069
ECCENTRICITY   = .0001506
INCLINATION    = 97.9205
RA_OF_ASC_NODE = 161.9169
ARG_OF_PERICENTER = 100.1773
MEAN_ANOMALY   = 259.9609

EPHEMERIS_TYPE = 0
CLASSIFICATION_TYPE = U
NORAD_CAT_ID   = 39766
ELEMENT_SET_NO = 999
REV_AT_EPOCH   = 63606
BSTAR          = .44123E-3
MEAN_MOTION_DOT = .3246E-4
MEAN_MOTION_DDOT = 0

CCSDS_OMM_VERS = 2.0
CREATION_DATE  = 
ORIGINATOR     = 

OBJECT_NAME    = YAOGAN-29
OBJECT_ID      = 2015-069A
CENTER_NAME    = EARTH
REF_FRAME      = TEME
TIME_SYSTEM    = UTC
MEAN_ELEMENT_THEORY = SGP/SGP4

EPOCH          = 2026-03-04T04:39:45.627840
MEAN_MOTION    = 14.82988223
ECCENTRICITY   = .0002238
INCLINATION    = 98.0149
RA_OF_ASC_NODE = 91.6089
ARG_OF_PERICENTER = 45.3358
MEAN_ANOMALY   = 314.8038

EPHEMERIS_TYPE = 0
CLASSIFICATION_TYPE = U
NORAD_CAT_ID   = 41038
ELEMENT_SET_NO = 999
REV_AT_EPOCH   = 55506
BSTAR          = .5897E-4
MEAN_MOTION_DOT = .425E-5
MEAN_MOTION_DDOT = 0

CCSDS_OMM_VERS = 2.0
CREATION_DATE  = 
ORIGINATOR     = 

OBJECT_NAME    = ASTRO-H (HITOMI)
OBJECT_ID      = 2016-012A
CENTER_NAME    = EARTH
REF_FRAME      = TEME
TIME_SYSTEM    = UTC
MEAN_ELEMENT_THEORY = SGP/SGP4

EPOCH          = 2026-03-04T03:32:23.094528
MEAN_MOTION    = 15.09958059
ECCENTRICITY   = .0010017
INCLINATION    = 31.0006
RA_OF_ASC_NODE = 32.3099
ARG_OF_PERICENTER = 275.9632
MEAN_ANOMALY   = 83.9865

EPHEMERIS_TYPE = 0
CLASSIFICATION_TYPE = U
NORAD_CAT_ID   = 41337
ELEMENT_SET_NO = 999
REV_AT_EPOCH   = 55139
BSTAR          = .30445E-3
MEAN_MOTION_DOT = .5164E-4
MEAN_MOTION_DDOT = 0

CCSDS_OMM_VERS = 2.0
CREATION_DATE  = 
ORIGINATOR     = 

OBJECT_NAME    = HXMT (HUIYAN)
OBJECT_ID      = 2017-034A
CENTER_NAME    = EARTH
REF_FRAME      = TEME
TIME_SYSTEM    = UTC
MEAN_ELEMENT_THEORY = SGP/SGP4

EPOCH          = 2026-03-04T04:22:53.300640
MEAN_MOTION    = 15.17375601
ECCENTRICITY   = .0032357
INCLINATION    = 43.0149
RA_OF_ASC_NODE = 47.2877
ARG_OF_PERICENTER = 202.2175
MEAN_ANOMALY   = 157.7273

EPHEMERIS_TYPE = 0
CLASSIFICATION_TYPE = U
NORAD_CAT_ID   = 42758
ELEMENT_SET_NO = 999
REV_AT_EPOCH   = 48170
BSTAR          = .38436E-3
MEAN_MOTION_DOT = .7688E-4
MEAN_MOTION_DDOT = 0

CCSDS_OMM_VERS = 2.0
CREATION_DATE  = 
ORIGINATOR     = 

OBJECT_NAME    = SAOCOM 1A
OBJECT_ID      = 2018-076A
CENTER_NAME    = EARTH
REF_FRAME      = TEME
TIME_SYSTEM    = UTC
MEAN_ELEMENT_THEORY = SGP/SGP4

EPOCH          = 2026-03-04T03:46:16.501152
MEAN_MOTION    = 14.82163622
ECCENTRICITY   = .0001323
INCLINATION    = 97.8882
RA_OF_ASC_NODE = 251.4077
ARG_OF_PERICENTER = 80.5734
MEAN_ANOMALY   = 279.5629

EPHEMERIS_TYPE = 0
CLASSIFICATION_TYPE = U
NORAD_CAT_ID   = 43641
ELEMENT_SET_NO = 999
REV_AT_EPOCH   = 40054
BSTAR          = .13205E-3
MEAN_MOTION_DOT = .999E-5
MEAN_MOTION_DDOT = 0

CCSDS_OMM_VERS = 2.0
CREATION_DATE  = 
ORIGINATOR     = 

OBJECT_NAME    = H-2A R/B
OBJECT_ID      = 2018-084L
CENTER_NAME    = EARTH
REF_FRAME      = TEME
TIME_SYSTEM    = UTC
MEAN_ELEMENT_THEORY = SGP/SGP4

EPOCH          = 2026-03-04T03:35:02.029920
MEAN_MOTION    = 15.41065297
ECCENTRICITY   = .0025781
INCLINATION    = 98.8734
RA_OF_ASC_NODE = 279.3544
ARG_OF_PERICENTER = 44.1315
MEAN_ANOMALY   = 316.1978

EPHEMERIS_TYPE = 0
CLASSIFICATION_TYPE = U
NORAD_CAT_ID   = 43682
ELEMENT_SET_NO = 999
REV_AT_EPOCH   = 40492
BSTAR          = .69806E-3
MEAN_MOTION_DOT = .29154E-3
MEAN_MOTION_DDOT = 0

CCSDS_OMM_VERS = 2.0
CREATION_DATE  = 
ORIGINATOR     = 

OBJECT_NAME    = SAOCOM 1B
OBJECT_ID      = 2020-059A
CENTER_NAME    = EARTH
REF_FRAME      = TEME
TIME_SYSTEM    = UTC
MEAN_ELEMENT_THEORY = SGP/SGP4

EPOCH          = 2026-03-04T04:31:14.176128
MEAN_MOTION    = 14.82163840
ECCENTRICITY   = .000144
INCLINATION    = 97.8881
RA_OF_ASC_NODE = 250.5364
ARG_OF_PERICENTER = 80.6522
MEAN_ANOMALY   = 279.4854

EPHEMERIS_TYPE = 0
CLASSIFICATION_TYPE = U
NORAD_CAT_ID   = 46265
ELEMENT_SET_NO = 999
REV_AT_EPOCH   = 29793
BSTAR          = .19708E-4
MEAN_MOTION_DOT = .105E-5
MEAN_MOTION_DDOT = 0

CCSDS_OMM_VERS = 2.0
CREATION_DATE  = 
ORIGINATOR     = 

OBJECT_NAME    = CSS (TIANHE)
OBJECT_ID      = 2021-035A
CENTER_NAME    = EARTH
REF_FRAME      = TEME
TIME_SYSTEM    = UTC
MEAN_ELEMENT_THEORY = SGP/SGP4

EPOCH          = 2026-03-04T03:32:44.323872
MEAN_MOTION    = 15.60380094
ECCENTRICITY   = .0006828
INCLINATION    = 41.4658
RA_OF_ASC_NODE = 241.8750
ARG_OF_PERICENTER = 240.6834
MEAN_ANOMALY   = 119.3323

EPHEMERIS_TYPE = 0
CLASSIFICATION_TYPE = U
NORAD_CAT_ID   = 48274
ELEMENT_SET_NO = 999
REV_AT_EPOCH   = 27674
BSTAR          = .35996E-3
MEAN_MOTION_DOT = .30185E-3
MEAN_MOTION_DDOT = 0

CCSDS_OMM_VERS = 2.0
CREATION_DATE  = 
ORIGINATOR     = 

OBJECT_NAME    = COSMOS 2550
OBJECT_ID      = 2021-056A
CENTER_NAME    = EARTH
REF_FRAME      = TEME
TIME_SYSTEM    = UTC
MEAN_ELEMENT_THEORY = SGP/SGP4

EPOCH          = 2026-03-04T04:05:14.436672
MEAN_MOTION    = 15.33832863
ECCENTRICITY   = .0008419
INCLINATION    = 67.1447
RA_OF_ASC_NODE = 57.6266
ARG_OF_PERICENTER = 269.1758
MEAN_ANOMALY   = 90.8432

EPHEMERIS_TYPE = 0
CLASSIFICATION_TYPE = U
NORAD_CAT_ID   = 48865
ELEMENT_SET_NO = 999
REV_AT_EPOCH   = 26261
BSTAR          = -.13526E-6
MEAN_MOTION_DOT = -.196E-5
MEAN_MOTION_DDOT = 0

CCSDS_OMM_VERS = 2.0
CREATION_DATE  = 
ORIGINATOR     = 

OBJECT_NAME    = CZ-2C R/B
OBJECT_ID      = 2022-058K
CENTER_NAME    = EARTH
REF_FRAME      = TEME
TIME_SYSTEM    = UTC
MEAN_ELEMENT_THEORY = SGP/SGP4

EPOCH          = 2026-03-04T04:12:27.832032
MEAN_MOTION    = 15.53767749
ECCENTRICITY   = .0042178
INCLINATION    = 50.1907
RA_OF_ASC_NODE = 346.6454
ARG_OF_PERICENTER = 177.4326
MEAN_ANOMALY   = 182.6868

EPHEMERIS_TYPE = 0
CLASSIFICATION_TYPE = U
NORAD_CAT_ID   = 52794
ELEMENT_SET_NO = 999
REV_AT_EPOCH   = 20927
BSTAR          = .67772E-3
MEAN_MOTION_DOT = .45844E-3
MEAN_MOTION_DDOT = 0

CCSDS_OMM_VERS = 2.0
CREATION_DATE  = 
ORIGINATOR     = 

OBJECT_NAME    = CZ-2C R/B
OBJECT_ID      = 2022-132E
CENTER_NAME    = EARTH
REF_FRAME      = TEME
TIME_SYSTEM    = UTC
MEAN_ELEMENT_THEORY = SGP/SGP4

EPOCH          = 2026-03-03T22:11:34.742688
MEAN_MOTION    = 15.61267902
ECCENTRICITY   = .0020745
INCLINATION    = 97.2956
RA_OF_ASC_NODE = 66.0687
ARG_OF_PERICENTER = 109.5338
MEAN_ANOMALY   = 250.8162

EPHEMERIS_TYPE = 0
CLASSIFICATION_TYPE = U
NORAD_CAT_ID   = 54039
ELEMENT_SET_NO = 999
REV_AT_EPOCH   = 18947
BSTAR          = .6603E-3
MEAN_MOTION_DOT = .56745E-3
MEAN_MOTION_DDOT = 0

